CCSDS_OMM_VERS = 2.0
CREATION_DATE  = 
ORIGINATOR     = 

OBJECT_NAME    = ATLAS CENTAUR 2
OBJECT_ID      = 1963-047A
CENTER_NAME    = EARTH
REF_FRAME      = TEME
TIME_SYSTEM    = UTC
MEAN_ELEMENT_THEORY = SGP/SGP4

EPOCH          = 2025-12-11T04:02:28.669632
MEAN_MOTION    = 14.11745754
ECCENTRICITY   = .0548948
INCLINATION    = 30.3554
RA_OF_ASC_NODE = 330.2353
ARG_OF_PERICENTER = 20.3298
MEAN_ANOMALY   = 341.8287

EPHEMERIS_TYPE = 0
CLASSIFICATION_TYPE = U
NORAD_CAT_ID   = 694
ELEMENT_SET_NO = 999
REV_AT_EPOCH   = 11910
BSTAR          = .53646E-3
MEAN_MOTION_DOT = .4446E-4
MEAN_MOTION_DDOT = 0

CCSDS_OMM_VERS = 2.0
CREATION_DATE  = 
ORIGINATOR     = 

OBJECT_NAME    = THOR AGENA D R/B
OBJECT_ID      = 1964-002A
CENTER_NAME    = EARTH
REF_FRAME      = TEME
TIME_SYSTEM    = UTC
MEAN_ELEMENT_THEORY = SGP/SGP4

EPOCH          = 2025-12-10T11:44:55.715136
MEAN_MOTION    = 14.33957448
ECCENTRICITY   = .00332608
INCLINATION    = 99.1218
RA_OF_ASC_NODE = 347.9866
ARG_OF_PERICENTER = 156.6761
MEAN_ANOMALY   = 203.5939

EPHEMERIS_TYPE = 0
CLASSIFICATION_TYPE = U
NORAD_CAT_ID   = 733
ELEMENT_SET_NO = 999
REV_AT_EPOCH   = 22551
BSTAR          = .1540425E-3
MEAN_MOTION_DOT = .384E-5
MEAN_MOTION_DDOT = 0

CCSDS_OMM_VERS = 2.0
CREATION_DATE  = 
ORIGINATOR     = 

OBJECT_NAME    = SL-3 R/B
OBJECT_ID      = 1964-053B
CENTER_NAME    = EARTH
REF_FRAME      = TEME
TIME_SYSTEM    = UTC
MEAN_ELEMENT_THEORY = SGP/SGP4

EPOCH          = 2025-12-11T03:14:40.198272
MEAN_MOTION    = 14.61273691
ECCENTRICITY   = .0073731
INCLINATION    = 65.0766
RA_OF_ASC_NODE = 230.8368
ARG_OF_PERICENTER = 320.8851
MEAN_ANOMALY   = 38.6931

EPHEMERIS_TYPE = 0
CLASSIFICATION_TYPE = U
NORAD_CAT_ID   = 877
ELEMENT_SET_NO = 999
REV_AT_EPOCH   = 25385
BSTAR          = .12227E-3
MEAN_MOTION_DOT = .503E-5
MEAN_MOTION_DDOT = 0

CCSDS_OMM_VERS = 2.0
CREATION_DATE  = 
ORIGINATOR     = 

OBJECT_NAME    = SL-8 R/B
OBJECT_ID      = 1967-045B
CENTER_NAME    = EARTH
REF_FRAME      = TEME
TIME_SYSTEM    = UTC
MEAN_ELEMENT_THEORY = SGP/SGP4

EPOCH          = 2025-12-11T04:49:26.247072
MEAN_MOTION    = 14.45534263
ECCENTRICITY   = .0064371
INCLINATION    = 74.0097
RA_OF_ASC_NODE = 153.3361
ARG_OF_PERICENTER = 183.0215
MEAN_ANOMALY   = 177.0564

EPHEMERIS_TYPE = 0
CLASSIFICATION_TYPE = U
NORAD_CAT_ID   = 2802
ELEMENT_SET_NO = 999
REV_AT_EPOCH   = 7623
BSTAR          = .1978E-3
MEAN_MOTION_DOT = .688E-5
MEAN_MOTION_DDOT = 0

CCSDS_OMM_VERS = 2.0
CREATION_DATE  = 
ORIGINATOR     = 

OBJECT_NAME    = SL-8 R/B
OBJECT_ID      = 1968-040B
CENTER_NAME    = EARTH
REF_FRAME      = TEME
TIME_SYSTEM    = UTC
MEAN_ELEMENT_THEORY = SGP/SGP4

EPOCH          = 2025-12-10T17:01:35.692896
MEAN_MOTION    = 15.02502024
ECCENTRICITY   = .00253429
INCLINATION    = 74.0304
RA_OF_ASC_NODE = 135.4029
ARG_OF_PERICENTER = 337.2778
MEAN_ANOMALY   = 22.7285

EPHEMERIS_TYPE = 0
CLASSIFICATION_TYPE = U
NORAD_CAT_ID   = 3230
ELEMENT_SET_NO = 999
REV_AT_EPOCH   = 7664
BSTAR          = .45525001E-3
MEAN_MOTION_DOT = .6051E-4
MEAN_MOTION_DDOT = 0

CCSDS_OMM_VERS = 2.0
CREATION_DATE  = 
ORIGINATOR     = 

OBJECT_NAME    = OAO 2
OBJECT_ID      = 1968-110A
CENTER_NAME    = EARTH
REF_FRAME      = TEME
TIME_SYSTEM    = UTC
MEAN_ELEMENT_THEORY = SGP/SGP4

EPOCH          = 2025-12-11T04:49:34.385088
MEAN_MOTION    = 14.47242838
ECCENTRICITY   = .0005793
INCLINATION    = 34.9945
RA_OF_ASC_NODE = 39.2489
ARG_OF_PERICENTER = 213.0223
MEAN_ANOMALY   = 147.0106

EPHEMERIS_TYPE = 0
CLASSIFICATION_TYPE = U
NORAD_CAT_ID   = 3597
ELEMENT_SET_NO = 999
REV_AT_EPOCH   = 627
BSTAR          = .13346E-3
MEAN_MOTION_DOT = .476E-5
MEAN_MOTION_DDOT = 0

CCSDS_OMM_VERS = 2.0
CREATION_DATE  = 
ORIGINATOR     = 

OBJECT_NAME    = ISIS 1
OBJECT_ID      = 1969-009A
CENTER_NAME    = EARTH
REF_FRAME      = TEME
TIME_SYSTEM    = UTC
MEAN_ELEMENT_THEORY = SGP/SGP4

EPOCH          = 2025-12-10T22:27:10.361376
MEAN_MOTION    = 11.30353203
ECCENTRICITY   = .170686
INCLINATION    = 88.4485
RA_OF_ASC_NODE = 164.9938
ARG_OF_PERICENTER = 268.3440
MEAN_ANOMALY   = 72.2327

EPHEMERIS_TYPE = 0
CLASSIFICATION_TYPE = U
NORAD_CAT_ID   = 3669
ELEMENT_SET_NO = 999
REV_AT_EPOCH   = 33850
BSTAR          = .22674E-3
MEAN_MOTION_DOT = .311E-5
MEAN_MOTION_DDOT = 0

CCSDS_OMM_VERS = 2.0
CREATION_DATE  = 
ORIGINATOR     = 

OBJECT_NAME    = SERT 2
OBJECT_ID      = 1970-009A
CENTER_NAME    = EARTH
REF_FRAME      = TEME
TIME_SYSTEM    = UTC
MEAN_ELEMENT_THEORY = SGP/SGP4

EPOCH          = 2025-12-10T14:55:27.141024
MEAN_MOTION    = 13.58717199
ECCENTRICITY   = .0005474
INCLINATION    = 99.2646
RA_OF_ASC_NODE = 287.6406
ARG_OF_PERICENTER = 39.2495
MEAN_ANOMALY   = 139.1663

EPHEMERIS_TYPE = 0
CLASSIFICATION_TYPE = U
NORAD_CAT_ID   = 4327
ELEMENT_SET_NO = 999
REV_AT_EPOCH   = 76779
BSTAR          = .14948E-3
MEAN_MOTION_DOT = .68E-6
MEAN_MOTION_DDOT = 0

CCSDS_OMM_VERS = 2.0
CREATION_DATE  = 
ORIGINATOR     = 

OBJECT_NAME    = SL-3 R/B
OBJECT_ID      = 1971-028B
CENTER_NAME    = EARTH
REF_FRAME      = TEME
TIME_SYSTEM    = UTC
MEAN_ELEMENT_THEORY = SGP/SGP4

EPOCH          = 2025-12-11T03:08:03.548832
MEAN_MOTION    = 15.54304751
ECCENTRICITY   = .0019332
INCLINATION    = 81.2374
RA_OF_ASC_NODE = 160.8163
ARG_OF_PERICENTER = 246.3564
MEAN_ANOMALY   = 113.5656

EPHEMERIS_TYPE = 0
CLASSIFICATION_TYPE = U
NORAD_CAT_ID   = 5118
ELEMENT_SET_NO = 999
REV_AT_EPOCH   = 97488
BSTAR          = .62878E-3
MEAN_MOTION_DOT = .41605E-3
MEAN_MOTION_DDOT = 0

CCSDS_OMM_VERS = 2.0
CREATION_DATE  = 
ORIGINATOR     = 

OBJECT_NAME    = ASTEX 1
OBJECT_ID      = 1971-089A
CENTER_NAME    = EARTH
REF_FRAME      = TEME
TIME_SYSTEM    = UTC
MEAN_ELEMENT_THEORY = SGP/SGP4

EPOCH          = 2025-12-10T15:15:15.045984
MEAN_MOTION    = 14.50638651
ECCENTRICITY   = .0016672
INCLINATION    = 92.7136
RA_OF_ASC_NODE = 122.9382
ARG_OF_PERICENTER = 32.5388
MEAN_ANOMALY   = 327.6842

EPHEMERIS_TYPE = 0
CLASSIFICATION_TYPE = U
NORAD_CAT_ID   = 5560
ELEMENT_SET_NO = 999
REV_AT_EPOCH   = 84939
BSTAR          = .23431E-3
MEAN_MOTION_DOT = .92E-5
MEAN_MOTION_DDOT = 0

CCSDS_OMM_VERS = 2.0
CREATION_DATE  = 
ORIGINATOR     = 

OBJECT_NAME    = SL-8 R/B
OBJECT_ID      = 1971-119B
CENTER_NAME    = EARTH
REF_FRAME      = TEME
TIME_SYSTEM    = UTC
MEAN_ELEMENT_THEORY = SGP/SGP4

EPOCH          = 2025-12-11T05:22:03.886176
MEAN_MOTION    = 14.35672506
ECCENTRICITY   = .0559535
INCLINATION    = 73.8892
RA_OF_ASC_NODE = 340.8181
ARG_OF_PERICENTER = 325.3880
MEAN_ANOMALY   = 31.1997

EPHEMERIS_TYPE = 0
CLASSIFICATION_TYPE = U
NORAD_CAT_ID   = 5730
ELEMENT_SET_NO = 999
REV_AT_EPOCH   = 64278
BSTAR          = .93165E-3
MEAN_MOTION_DOT = .17887E-3
MEAN_MOTION_DDOT = 0

CCSDS_OMM_VERS = 2.0
CREATION_DATE  = 
ORIGINATOR     = 

OBJECT_NAME    = OAO 3 (COPERNICUS)
OBJECT_ID      = 1972-065A
CENTER_NAME    = EARTH
REF_FRAME      = TEME
TIME_SYSTEM    = UTC
MEAN_ELEMENT_THEORY = SGP/SGP4

EPOCH          = 2025-12-10T17:04:24.735360
MEAN_MOTION    = 14.59903829
ECCENTRICITY   = .00062549
INCLINATION    = 35.0058
RA_OF_ASC_NODE = 84.2200
ARG_OF_PERICENTER = 157.4074
MEAN_ANOMALY   = 356.7649

EPHEMERIS_TYPE = 0
CLASSIFICATION_TYPE = U
NORAD_CAT_ID   = 6153
ELEMENT_SET_NO = 999
REV_AT_EPOCH   = 83318
BSTAR          = .15111053E-3
MEAN_MOTION_DOT = .714E-5
MEAN_MOTION_DDOT = 0

