ATLAS CENTAUR 2         
1 00694U 63047A   25345.16838738  .00004446  00000+0  53646-3 0  9996
2 00694  30.3554 330.2353 0548948  20.3298 341.8287 14.11745754119106
THOR AGENA D R/B        
1 00733U 64002A   25344.48953374  .00000384  00000+0  15404-3 0  9997
2 00733  99.1218 347.9866 0033260 156.6761 203.5939 14.33957448225518
SL-3 R/B                
1 00877U 64053B   25345.13518748  .00000503  00000+0  12227-3 0  9990
2 00877  65.0766 230.8368 0073731 320.8851  38.6931 14.61273691253855
SL-8 R/B                
1 02802U 67045B   25345.20099823  .00000688  00000+0  19780-3 0  9995
2 02802  74.0097 153.3361 0064371 183.0215 177.0564 14.45534263 76239
SL-8 R/B                
1 03230U 68040B   25344.70944089  .00006051  00000+0  45525-3 0  9990
2 03230  74.0304 135.4029 0025342 337.2778  22.7285 15.02502024 76645
OAO 2                   
1 03597U 68110A   25345.20109242  .00000476  00000+0  13346-3 0  9995
2 03597  34.9945  39.2489 0005793 213.0223 147.0106 14.47242838  6279
ISIS 1                  
1 03669U 69009A   25344.93553659  .00000311  00000+0  22674-3 0  9999
2 03669  88.4485 164.9938 1706860 268.3440  72.2327 11.30353203338501
SERT 2                  
1 04327U 70009A   25344.62184191  .00000068  00000+0  14948-3 0  9994
2 04327  99.2646 287.6406 0005474  39.2495 139.1663 13.58717199767795
SL-3 R/B                
1 05118U 71028B   25345.13059663  .00041605  00000+0  62878-3 0  9994
2 05118  81.2374 160.8163 0019332 246.3564 113.5656 15.54304751974883
ASTEX 1                 
1 05560U 71089A   25344.63559081  .00000920  00000+0  23431-3 0  9992
2 05560  92.7136 122.9382 0016672  32.5388 327.6842 14.50638651849398
SL-8 R/B                
1 05730U 71119B   25345.22365609  .00017887  00000+0  93165-3 0  9993
2 05730  73.8892 340.8181 0559535 325.3880  31.1997 14.35672506642786
OAO 3 (COPERNICUS)      
1 06153U 72065A   25344.71139740  .00000714  00000+0  15111-3 0  9998
2 06153  35.0058  84.2200 0006254 157.4074 356.7649 14.59903829833182
